{
    "links": {
        "self": "http://www.neowsapp.com/rest/v1/neo/54098023?api_key=iIulBulltgU6a56xZRHN4H3l9WmuAYTsLGpBGhQ2"
    },
    "id": "54098023",
    "neo_reference_id": "54098023",
    "name": "(2020 XO1)",
    "designation": "2020 XO1",
    "nasa_jpl_url": "http://ssd.jpl.nasa.gov/sbdb.cgi?sstr=54098023",
    "absolute_magnitude_h": 23.666,
    "estimated_diameter": {
        "kilometers": {
            "estimated_diameter_min": 0.0491309291,
            "estimated_diameter_max": 0.1098600972
        },
        "meters": {
            "estimated_diameter_min": 49.1309290529,
            "estimated_diameter_max": 109.8600971601
        },
        "miles": {
            "estimated_diameter_min": 0.0305285345,
            "estimated_diameter_max": 0.0682638784
        },
        "feet": {
            "estimated_diameter_min": 161.190717274,
            "estimated_diameter_max": 360.4334011666
        }
    },
    "is_potentially_hazardous_asteroid": false,
    "close_approach_data": [
        {
            "close_approach_date": "1946-04-16",
            "close_approach_date_full": "1946-Apr-16 19:27",
            "epoch_date_close_approach": -748240380000,
            "relative_velocity": {
                "kilometers_per_second": "12.9857429645",
                "kilometers_per_hour": "46748.6746723163",
                "miles_per_hour": "29047.8084373623"
            },
            "miss_distance": {
                "astronomical": "0.2078715886",
                "lunar": "80.8620479654",
                "kilometers": "31097146.888076282",
                "miles": "19322871.0628134116"
            },
            "orbiting_body": "Earth"
        },
        {
            "close_approach_date": "2020-12-13",
            "close_approach_date_full": "2020-Dec-13 10:33",
            "epoch_date_close_approach": 1607855580000,
            "relative_velocity": {
                "kilometers_per_second": "16.4376637586",
                "kilometers_per_hour": "59175.5895309089",
                "miles_per_hour": "36769.4100615806"
            },
            "miss_distance": {
                "astronomical": "0.0554127152",
                "lunar": "21.5555462128",
                "kilometers": "8289624.164836624",
                "miles": "5150933.6040644512"
            },
            "orbiting_body": "Earth"
        }
    ],
    "orbital_data": {
        "orbit_id": "1",
        "orbit_determination_date": "2020-12-07 23:12:03",
        "first_observation_date": "2020-12-06",
        "last_observation_date": "2020-12-08",
        "data_arc_in_days": 2,
        "observations_used": 24,
        "orbit_uncertainty": "9",
        "minimum_orbit_intersection": ".00287078",
        "jupiter_tisserand_invariant": "3.380",
        "epoch_osculation": "2459190.5",
        "eccentricity": ".6674867408022613",
        "semi_major_axis": "2.135292877345652",
        "inclination": "8.577478516604844",
        "ascending_node_longitude": "76.23306750535868",
        "orbital_period": "1139.684400707421",
        "perihelion_distance": ".7100131939879201",
        "perihelion_argument": "73.51969906964635",
        "aphelion_distance": "3.560572560703385",
        "perihelion_time": "2459239.058060437351",
        "mean_anomaly": "344.66162935406",
        "mean_motion": ".3158769215201523",
        "equinox": "J2000",
        "orbit_class": {
            "orbit_class_type": "APO",
            "orbit_class_description": "Near-Earth asteroid orbits which cross the Earth’s orbit similar to that of 1862 Apollo",
            "orbit_class_range": "a (semi-major axis) > 1.0 AU; q (perihelion) < 1.017 AU"
        }
    },
    "is_sentry_object": false
}